$$SOE
2460721.500000000, A.D. 2025-Feb-15 00:00:00.0000, 2.789032798170641E+08, 1.370551686554918E+08, 8.353982400839277E+06,
2460728.500000000, A.D. 2025-Feb-22 00:00:00.0000, 2.740952053840180E+08, 1.491566760624965E+08, 7.235640473953366E+06,
2460735.500000000, A.D. 2025-Mar-01 00:00:00.0000, 2.688496170326468E+08, 1.610201822547100E+08, 6.105744166177049E+06,
2460742.500000000, A.D. 2025-Mar-08 00:00:00.0000, 2.631802236467084E+08, 1.726299521236282E+08, 4.966217801934794E+06,
2460749.500000000, A.D. 2025-Mar-15 00:00:00.0000, 2.571012530585161E+08, 1.839711617679922E+08, 3.818957128383636E+06,
2460756.500000000, A.D. 2025-Mar-22 00:00:00.0000, 2.506273826107020E+08, 1.950299040994124E+08, 2.665824973292753E+06,
2460763.500000000, A.D. 2025-Mar-29 00:00:00.0000, 2.437736732103104E+08, 2.057931870900214E+08, 1.508647072526559E+06,
2460770.500000000, A.D. 2025-Apr-05 00:00:00.0000, 2.365555075543287E+08, 2.162489282177250E+08, 3.492082860438228E+05,
2460777.500000000, A.D. 2025-Apr-12 00:00:00.0000, 2.289885308879409E+08, 2.263859456491897E+08, -8.107506236998141E+05,
2460784.500000000, A.D. 2025-Apr-19 00:00:00.0000, 2.210885943397136E+08, 2.361939457223462E+08, -1.969535720896244E+06,
2460791.500000000, A.D. 2025-Apr-26 00:00:00.0000, 2.128717012808119E+08, 2.456635069651367E+08, -3.125502193277091E+06,
2460798.500000000, A.D. 2025-May-03 00:00:00.0000, 2.043539569441065E+08, 2.547860611000464E+08, -4.277056247093529E+06,
2460805.500000000, A.D. 2025-May-10 00:00:00.0000, 1.955515214052758E+08, 2.635538714591761E+08, -5.422656625641182E+06,
2460812.500000000, A.D. 2025-May-17 00:00:00.0000, 1.864805659924030E+08, 2.719600091666586E+08, -6.560815783031210E+06,
2460819.500000000, A.D. 2025-May-24 00:00:00.0000, 1.771572332892257E+08, 2.799983274109299E+08, -7.690100759486526E+06,
2460826.500000000, A.D. 2025-May-31 00:00:00.0000, 1.675976011090427E+08, 2.876634344723890E+08, -8.809133797635660E+06,
2460833.500000000, A.D. 2025-Jun-07 00:00:00.0000, 1.578176499716561E+08, 2.949506670369724E+08, -9.916592591797918E+06,
2460840.500000000, A.D. 2025-Jun-14 00:00:00.0000, 1.478332316208873E+08, 3.018560634188535E+08, -1.101121003377436E+07,
2460847.500000000, A.D. 2025-Jun-21 00:00:00.0000, 1.376600396766934E+08, 3.083763336960444E+08, -1.209177385812031E+07,
2460854.500000000, A.D. 2025-Jun-28 00:00:00.0000, 1.273135854264201E+08, 3.145088287794795E+08, -1.315712635517429E+07,
2460861.500000000, A.D. 2025-Jul-05 00:00:00.0000, 1.168091771007990E+08, 3.202515107875724E+08, -1.420616386098243E+07,
2460868.500000000, A.D. 2025-Jul-12 00:00:00.0000, 1.061619012907142E+08, 3.256029241108150E+08, -1.523783600280049E+07,
2460875.500000000, A.D. 2025-Jul-19 00:00:00.0000, 9.538660653684509E+07, 3.305621667607963E+08, -1.625114478548914E+07,
2460882.500000000, A.D. 2025-Jul-26 00:00:00.0000, 8.449788914277868E+07, 3.351288620942473E+08, -1.724514356246047E+07,
2460889.500000000, A.D. 2025-Aug-02 00:00:00.0000, 7.351008111703785E+07, 3.393031310595486E+08, -1.821893591385709E+07,
2460896.500000000, A.D. 2025-Aug-09 00:00:00.0000, 6.243724010876004E+07, 3.430855650572876E+08, -1.917167445241277E+07,
2460903.500000000, A.D. 2025-Aug-16 00:00:00.0000, 5.129314125846142E+07, 3.464771994399093E+08, -2.010255958502375E+07,
2460910.500000000, A.D. 2025-Aug-23 00:00:00.0000, 4.009127110587033E+07, 3.494794877385855E+08, -2.101083827005227E+07,
2460917.500000000, A.D. 2025-Aug-30 00:00:00.0000, 2.884482373967696E+07, 3.520942773878655E+08, -2.189580275556512E+07,
2460924.500000000, A.D. 2025-Sep-06 00:00:00.0000, 1.756669763624639E+07, 3.543237879879392E+08, -2.275678909874469E+07,
2460931.500000000, A.D. 2025-Sep-13 00:00:00.0000, 6.269491385602705E+06, 3.561705896364237E+08, -2.359317552447316E+07,
2460938.500000000, A.D. 2025-Sep-20 00:00:00.0000, -5.034498559985662E+06, 3.576375796930640E+08, -2.440438106328478E+07,
2460945.500000000, A.D. 2025-Sep-27 00:00:00.0000, -1.633327718483784E+07, 3.587279611068770E+08, -2.518986431944607E+07,
2460952.500000000, A.D. 2025-Oct-04 00:00:00.0000, -2.761514938619702E+07, 3.594452228542917E+08, -2.594912214818016E+07,
2460959.500000000, A.D. 2025-Oct-11 00:00:00.0000, -3.886871810651691E+07, 3.597931215451397E+08, -2.668168829181346E+07,
2460966.500000000, A.D. 2025-Oct-18 00:00:00.0000, -5.008288193353128E+07, 3.597756639149743E+08, -2.738713202959141E+07,
2460973.500000000, A.D. 2025-Oct-25 00:00:00.0000, -6.124683211650229E+07, 3.593970901995209E+08, -2.806505685817374E+07,
2460980.500000000, A.D. 2025-Nov-01 00:00:00.0000, -7.235004904156965E+07, 3.586618583852257E+08, -2.871509920906071E+07,
2460987.500000000, A.D. 2025-Nov-08 00:00:00.0000, -8.338229820876776E+07, 3.575746292791330E+08, -2.933692721171050E+07,
2460994.500000000, A.D. 2025-Nov-15 00:00:00.0000, -9.433362563445802E+07, 3.561402523118420E+08, -2.993023952312587E+07,
2461001.500000000, A.D. 2025-Nov-22 00:00:00.0000, -1.051943523427643E+08, 3.543637522645476E+08, -3.049476424487408E+07,
2461008.500000000, A.D. 2025-Nov-29 00:00:00.0000, -1.159550681606836E+08, 3.522503180265986E+08, -3.103025782278062E+07,
2461015.500000000, A.D. 2025-Dec-06 00:00:00.0000, -1.266066271483341E+08, 3.498052932203797E+08, -3.153650373387781E+07,
2461022.500000000, A.D. 2025-Dec-13 00:00:00.0000, -1.371401442756556E+08, 3.470341652890959E+08, -3.201331127630064E+07,
2461029.500000000, A.D. 2025-Dec-20 00:00:00.0000, -1.475469898991604E+08, 3.439425540334057E+08, -3.246051469821909E+07,
2461036.500000000, A.D. 2025-Dec-27 00:00:00.0000, -1.578187831568279E+08, 3.405362021615002E+08, -3.287797235720053E+07,
2461043.500000000, A.D. 2026-Jan-03 00:00:00.0000, -1.679473857740662E+08, 3.368209672092995E+08, -3.326556582750444E+07,
2461050.500000000, A.D. 2026-Jan-10 00:00:00.0000, -1.779248962006153E+08, 3.328028141195919E+08, -3.362319902033305E+07,
2461057.500000000, A.D. 2026-Jan-17 00:00:00.0000, -1.877436438732887E+08, 3.284878083562856E+08, -3.395079734496185E+07,
2461064.500000000, A.D. 2026-Jan-24 00:00:00.0000, -1.973961835514761E+08, 3.238821095446365E+08, -3.424830691496867E+07,
2461071.500000000, A.D. 2026-Jan-31 00:00:00.0000, -2.068752897249496E+08, 3.189919655986367E+08, -3.451569380113751E+07,
2461078.500000000, A.D. 2026-Feb-07 00:00:00.0000, -2.161739510543142E+08, 3.138237072479445E+08, -3.475294334030274E+07,
2461085.500000000, A.D. 2026-Feb-14 00:00:00.0000, -2.252853646117897E+08, 3.083837429207994E+08, -3.496005952385381E+07,
2461092.500000000, A.D. 2026-Feb-21 00:00:00.0000, -2.342029295541324E+08, 3.026785545340405E+08, -3.513706445389286E+07,
2461099.500000000, A.D. 2026-Feb-28 00:00:00.0000, -2.429202413308288E+08, 2.967146953208969E+08, -3.528399767346193E+07,
2461106.500000000, A.D. 2026-Mar-07 00:00:00.0000, -2.514310885009544E+08, 2.904987877275164E+08, -3.540091534202881E+07,
2461113.500000000, A.D. 2026-Mar-14 00:00:00.0000, -2.597294493901190E+08, 2.840375190232012E+08, -3.548788970029923E+07,
2461120.500000000, A.D. 2026-Mar-21 00:00:00.0000, -2.678094868133734E+08, 2.773376374952127E+08, -3.554500874886434E+07,
2461127.500000000, A.D. 2026-Mar-28 00:00:00.0000, -2.756655428864248E+08, 2.704059502361585E+08, -3.557237587215695E+07,
2461134.500000000, A.D. 2026-Apr-04 00:00:00.0000, -2.832921345373197E+08, 2.632493215404001E+08, -3.557010943096536E+07,
2461141.500000000, A.D. 2026-Apr-11 00:00:00.0000, -2.906839494507558E+08, 2.558746715295368E+08, -3.553834237678997E+07,
2461148.500000000, A.D. 2026-Apr-18 00:00:00.0000, -2.978358422922018E+08, 2.482889749804744E+08, -3.547722190196469E+07,
2461155.500000000, A.D. 2026-Apr-25 00:00:00.0000, -3.047428311725729E+08, 2.404992603524953E+08, -3.538690912759503E+07,
2461162.500000000, A.D. 2026-May-02 00:00:00.0000, -3.114000943289677E+08, 2.325126089670059E+08, -3.526757883382089E+07,
2461169.500000000, A.D. 2026-May-09 00:00:00.0000, -3.178029669022666E+08, 2.243361542585250E+08, -3.511941924862939E+07,
2461176.500000000, A.D. 2026-May-16 00:00:00.0000, -3.239469374375474E+08, 2.159770812211475E+08, -3.494263191785043E+07,
2461183.500000000, A.D. 2026-May-23 00:00:00.0000, -3.298276440576426E+08, 2.074426270588133E+08, -3.473743157644639E+07,
2461190.500000000, A.D. 2026-May-30 00:00:00.0000, -3.354408723904124E+08, 1.987400833444847E+08, -3.450404580313122E+07,
2461197.500000000, A.D. 2026-Jun-06 00:00:00.0000, -3.407825555694822E+08, 1.898767964010185E+08, -3.424271469563846E+07,
2461204.500000000, A.D. 2026-Jun-13 00:00:00.0000, -3.458487726421317E+08, 1.808601660868722E+08, -3.395369088456941E+07,
2461211.500000000, A.D. 2026-Jun-20 00:00:00.0000, -3.506357458893291E+08, 1.716976458936788E+08, -3.363723959933948E+07,
2461218.500000000, A.D. 2026-Jun-27 00:00:00.0000, -3.551398387681232E+08, 1.623967440028180E+08, -3.329363865960032E+07,
2461225.500000000, A.D. 2026-Jul-04 00:00:00.0000, -3.593575544862764E+08, 1.529650245193014E+08, -3.292317845716351E+07,
2461232.500000000, A.D. 2026-Jul-11 00:00:00.0000, -3.632855349601418E+08, 1.434101087439258E+08, -3.252616196293014E+07,
2461239.500000000, A.D. 2026-Jul-18 00:00:00.0000, -3.669205600662092E+08, 1.337396765002196E+08, -3.210290476489016E+07,
2461246.500000000, A.D. 2026-Jul-25 00:00:00.0000, -3.702595471650730E+08, 1.239614675083857E+08, -3.165373513862141E+07,
2461253.500000000, A.D. 2026-Aug-01 00:00:00.0000, -3.732995508535237E+08, 1.140832827470502E+08, -3.117899415802938E+07,
2461260.500000000, A.D. 2026-Aug-08 00:00:00.0000, -3.760377627342877E+08, 1.041129857557594E+08, -3.067903586839894E+07,
2461267.500000000, A.D. 2026-Aug-15 00:00:00.0000, -3.784715107930883E+08, 9.405850431734534E+07, -3.015422752244298E+07,
2461274.500000000, A.D. 2026-Aug-22 00:00:00.0000, -3.805982591493548E+08, 8.392783372964902E+07, -2.960494970922007E+07,
2461281.500000000, A.D. 2026-Aug-29 00:00:00.0000, -3.824156104775567E+08, 7.372904028188516E+07, -2.903159627815290E+07,
2461288.500000000, A.D. 2026-Sep-05 00:00:00.0000, -3.839213089751106E+08, 6.347026205781796E+07, -2.843457448851389E+07,
$$EOE